[{"OBJECT_NAME":"TEVEL2-9","OBJECT_ID":"2025-052AD","EPOCH":"2026-03-09T16:51:18.321696","MEAN_MOTION":15.28633834,"ECCENTRICITY":0.000799,"INCLINATION":97.4057,"RA_OF_ASC_NODE":324.3929,"ARG_OF_PERICENTER":124.2475,"MEAN_ANOMALY":235.9522,"EPHEMERIS_TYPE":0,"CLASSIFICATION_TYPE":"U","NORAD_CAT_ID":63237,"ELEMENT_SET_NO":999,"REV_AT_EPOCH":5481,"BSTAR":0.00067240159,"MEAN_MOTION_DOT":0.00018694,"MEAN_MOTION_DDOT":0},{"OBJECT_NAME":"STARLINK-36471","OBJECT_ID":"2026-002V","EPOCH":"2026-03-09T02:51:22.155552","MEAN_MOTION":15.2758585,"ECCENTRICITY":0.00013932,"INCLINATION":43.0021,"RA_OF_ASC_NODE":328.3142,"ARG_OF_PERICENTER":277.6642,"MEAN_ANOMALY":82.4051,"EPHEMERIS_TYPE":0,"CLASSIFICATION_TYPE":"U","NORAD_CAT_ID":67324,"ELEMENT_SET_NO":999,"REV_AT_EPOCH":1099,"BSTAR":0.0010515395,"MEAN_MOTION_DOT":0.00028792,"MEAN_MOTION_DDOT":0}]
